CCSDS_OMM_VERS = 2.0
CREATION_DATE  = 
ORIGINATOR     = 

OBJECT_NAME    = DELTA 2 R/B(1)
OBJECT_ID      = 1990-008B
CENTER_NAME    = EARTH
REF_FRAME      = TEME
TIME_SYSTEM    = UTC
MEAN_ELEMENT_THEORY = SGP/SGP4

EPOCH          = 2026-02-27T13:16:19.567200
MEAN_MOTION    = 15.54414506
ECCENTRICITY   = .0087485
INCLINATION    = 35.6028
RA_OF_ASC_NODE = 241.3044
ARG_OF_PERICENTER = 164.5669
MEAN_ANOMALY   = 195.7762

EPHEMERIS_TYPE = 0
CLASSIFICATION_TYPE = U
NORAD_CAT_ID   = 20453
ELEMENT_SET_NO = 999
REV_AT_EPOCH   = 92455
BSTAR          = .80297E-3
MEAN_MOTION_DOT = .65054E-3
MEAN_MOTION_DDOT = 0

CCSDS_OMM_VERS = 2.0
CREATION_DATE  = 
ORIGINATOR     = 

OBJECT_NAME    = COSMOS 2058
OBJECT_ID      = 1990-010A
CENTER_NAME    = EARTH
REF_FRAME      = TEME
TIME_SYSTEM    = UTC
MEAN_ELEMENT_THEORY = SGP/SGP4

EPOCH          = 2026-02-27T10:50:16.391904
MEAN_MOTION    = 15.11213970
ECCENTRICITY   = .001009
INCLINATION    = 82.4666
RA_OF_ASC_NODE = 57.5146
ARG_OF_PERICENTER = 17.5159
MEAN_ANOMALY   = 342.6417

EPHEMERIS_TYPE = 0
CLASSIFICATION_TYPE = U
NORAD_CAT_ID   = 20465
ELEMENT_SET_NO = 999
REV_AT_EPOCH   = 94069
BSTAR          = .25424E-3
MEAN_MOTION_DOT = .4303E-4
MEAN_MOTION_DDOT = 0

CCSDS_OMM_VERS = 2.0
CREATION_DATE  = 
ORIGINATOR     = 

OBJECT_NAME    = SL-14 R/B
OBJECT_ID      = 1990-010B
CENTER_NAME    = EARTH
REF_FRAME      = TEME
TIME_SYSTEM    = UTC
MEAN_ELEMENT_THEORY = SGP/SGP4

EPOCH          = 2026-02-27T02:20:45.960288
MEAN_MOTION    = 14.83558405
ECCENTRICITY   = .00192528
INCLINATION    = 82.4996
RA_OF_ASC_NODE = 277.3404
ARG_OF_PERICENTER = 339.1012
MEAN_ANOMALY   = 20.9414

EPHEMERIS_TYPE = 0
CLASSIFICATION_TYPE = U
NORAD_CAT_ID   = 20466
ELEMENT_SET_NO = 999
REV_AT_EPOCH   = 92691
BSTAR          = .45909683E-4
MEAN_MOTION_DOT = .403E-5
MEAN_MOTION_DDOT = 0

CCSDS_OMM_VERS = 2.0
CREATION_DATE  = 
ORIGINATOR     = 

OBJECT_NAME    = SL-14 R/B
OBJECT_ID      = 1990-018B
CENTER_NAME    = EARTH
REF_FRAME      = TEME
TIME_SYSTEM    = UTC
MEAN_ELEMENT_THEORY = SGP/SGP4

EPOCH          = 2026-02-27T10:37:51.059712
MEAN_MOTION    = 14.82131551
ECCENTRICITY   = .0017482
INCLINATION    = 82.5187
RA_OF_ASC_NODE = 232.6683
ARG_OF_PERICENTER = 123.0886
MEAN_ANOMALY   = 237.2010

EPHEMERIS_TYPE = 0
CLASSIFICATION_TYPE = U
NORAD_CAT_ID   = 20511
ELEMENT_SET_NO = 999
REV_AT_EPOCH   = 92106
BSTAR          = .65354E-4
MEAN_MOTION_DOT = .545E-5
MEAN_MOTION_DDOT = 0

CCSDS_OMM_VERS = 2.0
CREATION_DATE  = 
ORIGINATOR     = 

OBJECT_NAME    = HST
OBJECT_ID      = 1990-037B
CENTER_NAME    = EARTH
REF_FRAME      = TEME
TIME_SYSTEM    = UTC
MEAN_ELEMENT_THEORY = SGP/SGP4

EPOCH          = 2026-02-27T10:29:07.145664
MEAN_MOTION    = 15.29295817
ECCENTRICITY   = .0001432
INCLINATION    = 28.4696
RA_OF_ASC_NODE = 109.9319
ARG_OF_PERICENTER = 20.1888
MEAN_ANOMALY   = 339.8763

EPHEMERIS_TYPE = 0
CLASSIFICATION_TYPE = U
NORAD_CAT_ID   = 20580
ELEMENT_SET_NO = 999
REV_AT_EPOCH   = 77174
BSTAR          = .26528E-3
MEAN_MOTION_DOT = .799E-4
MEAN_MOTION_DDOT = 0

CCSDS_OMM_VERS = 2.0
CREATION_DATE  = 
ORIGINATOR     = 

OBJECT_NAME    = SL-16 R/B
OBJECT_ID      = 1990-046B
CENTER_NAME    = EARTH
REF_FRAME      = TEME
TIME_SYSTEM    = UTC
MEAN_ELEMENT_THEORY = SGP/SGP4

EPOCH          = 2026-02-27T10:43:31.350432
MEAN_MOTION    = 14.15015354
ECCENTRICITY   = .001596
INCLINATION    = 71.0012
RA_OF_ASC_NODE = 319.4260
ARG_OF_PERICENTER = 313.5187
MEAN_ANOMALY   = 46.4608

EPHEMERIS_TYPE = 0
CLASSIFICATION_TYPE = U
NORAD_CAT_ID   = 20625
ELEMENT_SET_NO = 999
REV_AT_EPOCH   = 84694
BSTAR          = -.20117E-4
MEAN_MOTION_DOT = -.87E-6
MEAN_MOTION_DDOT = 0

CCSDS_OMM_VERS = 2.0
CREATION_DATE  = 
ORIGINATOR     = 

OBJECT_NAME    = COSMOS 2084
OBJECT_ID      = 1990-055A
CENTER_NAME    = EARTH
REF_FRAME      = TEME
TIME_SYSTEM    = UTC
MEAN_ELEMENT_THEORY = SGP/SGP4

EPOCH          = 2026-02-27T13:26:49.842240
MEAN_MOTION    = 15.05575125
ECCENTRICITY   = .001864
INCLINATION    = 62.7913
RA_OF_ASC_NODE = 10.1224
ARG_OF_PERICENTER = 187.5377
MEAN_ANOMALY   = 172.5446

EPHEMERIS_TYPE = 0
CLASSIFICATION_TYPE = U
NORAD_CAT_ID   = 20663
ELEMENT_SET_NO = 999
REV_AT_EPOCH   = 93479
BSTAR          = .21505E-3
MEAN_MOTION_DOT = .2923E-4
MEAN_MOTION_DDOT = 0

CCSDS_OMM_VERS = 2.0
CREATION_DATE  = 
ORIGINATOR     = 

OBJECT_NAME    = SL-6 R/B(2)
OBJECT_ID      = 1990-055D
CENTER_NAME    = EARTH
REF_FRAME      = TEME
TIME_SYSTEM    = UTC
MEAN_ELEMENT_THEORY = SGP/SGP4

EPOCH          = 2026-02-27T07:54:39.108384
MEAN_MOTION    = 15.03537967
ECCENTRICITY   = .0023141
INCLINATION    = 62.7827
RA_OF_ASC_NODE = 289.0817
ARG_OF_PERICENTER = 344.4281
MEAN_ANOMALY   = 15.6103

EPHEMERIS_TYPE = 0
CLASSIFICATION_TYPE = U
NORAD_CAT_ID   = 20666
ELEMENT_SET_NO = 999
REV_AT_EPOCH   = 93663
BSTAR          = .16393E-3
MEAN_MOTION_DOT = .2059E-4
MEAN_MOTION_DDOT = 0

CCSDS_OMM_VERS = 2.0
CREATION_DATE  = 
ORIGINATOR     = 

OBJECT_NAME    = SL-8 R/B
OBJECT_ID      = 1990-078B
CENTER_NAME    = EARTH
REF_FRAME      = TEME
TIME_SYSTEM    = UTC
MEAN_ELEMENT_THEORY = SGP/SGP4

EPOCH          = 2026-02-27T07:02:14.008416
MEAN_MOTION    = 14.88667592
ECCENTRICITY   = .0364685
INCLINATION    = 82.8999
RA_OF_ASC_NODE = 260.6595
ARG_OF_PERICENTER = 48.8900
MEAN_ANOMALY   = 314.3200

EPHEMERIS_TYPE = 0
CLASSIFICATION_TYPE = U
NORAD_CAT_ID   = 20775
ELEMENT_SET_NO = 999
REV_AT_EPOCH   = 80775
BSTAR          = .49069E-3
MEAN_MOTION_DOT = .16721E-3
MEAN_MOTION_DDOT = 0

CCSDS_OMM_VERS = 2.0
CREATION_DATE  = 
ORIGINATOR     = 

OBJECT_NAME    = SL-8 R/B
OBJECT_ID      = 1991-006B
CENTER_NAME    = EARTH
REF_FRAME      = TEME
TIME_SYSTEM    = UTC
MEAN_ELEMENT_THEORY = SGP/SGP4

EPOCH          = 2026-02-27T14:10:08.186592
MEAN_MOTION    = 13.77492996
ECCENTRICITY   = .0023564
INCLINATION    = 82.9461
RA_OF_ASC_NODE = 177.5533
ARG_OF_PERICENTER = 65.4977
MEAN_ANOMALY   = 305.5571

EPHEMERIS_TYPE = 0
CLASSIFICATION_TYPE = U
NORAD_CAT_ID   = 21088
ELEMENT_SET_NO = 999
REV_AT_EPOCH   = 76268
BSTAR          = .25197E-4
MEAN_MOTION_DOT = .41E-6
MEAN_MOTION_DDOT = 0

CCSDS_OMM_VERS = 2.0
CREATION_DATE  = 
ORIGINATOR     = 

OBJECT_NAME    = OKEAN-3
OBJECT_ID      = 1991-039A
CENTER_NAME    = EARTH
REF_FRAME      = TEME
TIME_SYSTEM    = UTC
MEAN_ELEMENT_THEORY = SGP/SGP4

EPOCH          = 2026-02-27T12:07:03.584640
MEAN_MOTION    = 15.04720738
ECCENTRICITY   = .0014625
INCLINATION    = 82.5200
RA_OF_ASC_NODE = 346.7075
ARG_OF_PERICENTER = 13.2035
MEAN_ANOMALY   = 346.9571

EPHEMERIS_TYPE = 0
CLASSIFICATION_TYPE = U
NORAD_CAT_ID   = 21397
ELEMENT_SET_NO = 999
REV_AT_EPOCH   = 86350
BSTAR          = .24574E-3
MEAN_MOTION_DOT = .3495E-4
MEAN_MOTION_DDOT = 0

CCSDS_OMM_VERS = 2.0
CREATION_DATE  = 
ORIGINATOR     = 

OBJECT_NAME    = COSMOS 2151
OBJECT_ID      = 1991-042A
CENTER_NAME    = EARTH
REF_FRAME      = TEME
TIME_SYSTEM    = UTC
MEAN_ELEMENT_THEORY = SGP/SGP4

EPOCH          = 2026-02-27T16:15:46.991808
MEAN_MOTION    = 15.00059173
ECCENTRICITY   = .0014142
INCLINATION    = 82.4935
RA_OF_ASC_NODE = 93.3364
ARG_OF_PERICENTER = 93.5082
MEAN_ANOMALY   = 266.7759

EPHEMERIS_TYPE = 0
CLASSIFICATION_TYPE = U
NORAD_CAT_ID   = 21422
ELEMENT_SET_NO = 999
REV_AT_EPOCH   = 86169
BSTAR          = .12023E-3
MEAN_MOTION_DOT = .1527E-4
MEAN_MOTION_DDOT = 0

