DELTA 2 R/B(1)          
1 20453U 90008B   26058.55300425  .00065054  00000+0  80297-3 0  9994
2 20453  35.6028 241.3044 0087485 164.5669 195.7762 15.54414506924554
COSMOS 2058             
1 20465U 90010A   26058.45157861  .00004303  00000+0  25424-3 0  9994
2 20465  82.4666  57.5146 0010090  17.5159 342.6417 15.11213970940692
SL-14 R/B               
1 20466U 90010B   26058.09775417  .00000403  00000+0  45910-4 0  9998
2 20466  82.4996 277.3404 0019252 339.1012  20.9414 14.83558405926913
SL-14 R/B               
1 20511U 90018B   26058.44295208  .00000545  00000+0  65354-4 0  9992
2 20511  82.5187 232.6683 0017482 123.0886 237.2010 14.82131551921066
HST                     
1 20580U 90037B   26058.43688826  .00007990  00000+0  26528-3 0  9990
2 20580  28.4696 109.9319 0001432  20.1888 339.8763 15.29295817771745
SL-16 R/B               
1 20625U 90046B   26058.44689063 -.00000087  00000+0 -20117-4 0  9996
2 20625  71.0012 319.4260 0015960 313.5187  46.4608 14.15015354846940
COSMOS 2084             
1 20663U 90055A   26058.56029910  .00002923  00000+0  21505-3 0  9990
2 20663  62.7913  10.1224 0018640 187.5377 172.5446 15.05575125934791
SL-6 R/B(2)             
1 20666U 90055D   26058.32961931  .00002059  00000+0  16393-3 0  9994
2 20666  62.7827 289.0817 0023141 344.4281  15.6103 15.03537967936635
SL-8 R/B                
1 20775U 90078B   26058.29321769  .00016721  00000+0  49069-3 0  9992
2 20775  82.8999 260.6595 0364685  48.8900 314.3200 14.88667592807758
SL-8 R/B                
1 21088U 91006B   26058.59037253  .00000041  00000+0  25197-4 0  9992
2 21088  82.9461 177.5533 0023564  65.4977 305.5571 13.77492996762682
OKEAN-3                 
1 21397U 91039A   26058.50490260  .00003495  00000+0  24574-3 0  9996
2 21397  82.5200 346.7075 0014625  13.2035 346.9571 15.04720738863509
COSMOS 2151             
1 21422U 91042A   26058.67762722  .00001527  00000+0  12023-3 0  9992
2 21422  82.4935  93.3364 0014142  93.5082 266.7759 15.00059173861694
